GSAT0101 (GALILEO-PFM)  
1 37846U 11060A   26073.40826530 -.00000081  00000+0  00000+0 0  9990
2 37846  57.0247 344.3347 0004100  11.0277 349.0106  1.70475751 89508
GSAT0102 (GALILEO-FM2)  
1 37847U 11060B   26060.06318653 -.00000106  00000+0  00000+0 0  9999
2 37847  57.0301 344.6971 0005422 341.2092 154.1953  1.70475778 89286
GSAT0103 (GALILEO-FM3)  
1 38857U 12055A   26076.38163945  .00000058  00000+0  00000+0 0  9995
2 38857  55.7501 104.0635 0005679 287.1533  72.8692  1.70473419 83440
GSAT0201 (GALILEO 5)    
1 40128U 14050A   26076.25038359  .00000010  00000+0  00000+0 0  9990
2 40128  48.9749 277.1981 1659810 175.8175 185.7717  1.85520031 76618
GSAT0202 (GALILEO 6)    
1 40129U 14050B   26077.04523154  .00000008  00000+0  00000+0 0  9998
2 40129  48.9907 276.2503 1660803 176.5844 184.7132  1.85520759 78798
GSAT0203 (GALILEO 7)    
1 40544U 15017A   26077.29236245 -.00000073  00000+0  00000+0 0  9995
2 40544  56.8162 344.0763 0004557 298.5751  61.4192  1.70475633 67655
GSAT0204 (GALILEO 8)    
1 40545U 15017B   26076.96137921 -.00000073  00000+0  00000+0 0  9990
2 40545  56.8224 344.1033 0004429 290.9703  69.0215  1.70475337 30692
GSAT0206 (GALILEO 10)   
1 40890U 15045B   26077.53671132  .00000021  00000+0  00000+0 0  9997
2 40890  54.9771 224.1049 0003309  50.6387 309.3291  1.70473646 65491
GSAT0209 (GALILEO 12)   
1 41174U 15079A   26077.11828689  .00000060  00000+0  00000+0 0  9998
2 41174  55.7685 103.7584 0005129 323.5033  36.5450  1.70474410 63223
GSAT0208 (GALILEO 11)   
1 41175U 15079B   26075.57876903  .00000055  00000+0  00000+0 0  9993
2 41175  55.7656 103.7977 0004455 323.7498  36.3041  1.70474376 63614
GSAT0211 (GALILEO 14)   
1 41549U 16030A   26076.28930706  .00000024  00000+0  00000+0 0  9993
2 41549  55.1261 224.2196 0003338  22.5180 337.4377  1.70473863 61107
GSAT0210 (GALILEO 13)   
1 41550U 16030B   26077.13315793  .00000022  00000+0  00000+0 0  9991
2 41550  55.1239 224.1945 0001550 203.9465 155.9854  1.70473904 61110
GSAT0207 (GALILEO 15)   
1 41859U 16069A   26075.65180423  .00000054  00000+0  00000+0 0  9995
2 41859  55.4388 103.6453 0005435 310.2780  49.7583  1.70474369 57821
GSAT0212 (GALILEO 16)   
1 41860U 16069B   26077.85166496  .00000060  00000+0  00000+0 0  9992
2 41860  55.4373 103.5795 0004026 335.1967  24.8644  1.70474504 58119
GSAT0213 (GALILEO 17)   
1 41861U 16069C   26077.04592131  .00000059  00000+0  00000+0 0  9991
2 41861  55.4384 103.6095 0005538 294.5801  65.4453  1.70474868 57964
GSAT0214 (GALILEO 18)   
1 41862U 16069D   26077.77856992  .00000060  00000+0  00000+0 0  9992
2 41862  55.4377 103.5820 0004615 299.4226  60.6120  1.70474628 58101
GSAT0215 (GALILEO 19)   
1 43055U 17079A   26077.68196790  .00000021  00000+0  00000+0 0  9990
2 43055  55.1033 223.9944 0000436 330.6376  29.2984  1.70474493 51447
GSAT0216 (GALILEO 20)   
1 43056U 17079B   26077.38659822  .00000022  00000+0  00000+0 0  9999
2 43056  55.1039 224.0026 0001780 307.3268  52.5956  1.70474626 51458
GSAT0217 (GALILEO 21)   
1 43057U 17079C   26078.19394003  .00000021  00000+0  00000+0 0  9996
2 43057  55.1026 223.9782 0001898 345.5080  14.4251  1.70474513 51458
GSAT0218 (GALILEO 22)   
1 43058U 17079D   26076.06766953  .00000025  00000+0  00000+0 0  9992
2 43058  55.1023 224.0343 0002067 296.2369  63.6837  1.70474546 51443
GSAT0221 (GALILEO 25)   
1 43564U 18060A   26065.99917537 -.00000103  00000+0  00000+0 0  9999
2 43564  57.2026 344.5430 0005694 308.1098  51.8621  1.70475614 47427
GSAT0222 (GALILEO 26)   
1 43565U 18060B   26077.36385796 -.00000072  00000+0  00000+0 0  9995
2 43565  57.2015 344.2393 0003600 290.2442  69.7573  1.70475125 47667
GSAT0219 (GALILEO 23)   
1 43566U 18060C   26076.99827481 -.00000072  00000+0  00000+0 0  9996
2 43566  57.2015 344.2507 0004817 317.6155  42.3865  1.70475308 47632
GSAT0220 (GALILEO 24)   
1 43567U 18060D   26077.21923705 -.00000072  00000+0  00000+0 0  9999
2 43567  57.2004 344.2456 0004523 317.6555  42.3495  1.70475263 47620
GSAT0223 (GALILEO 27)   
1 49809U 21116A   26076.19029499 -.00000074  00000+0  00000+0 0  9995
2 49809  57.1906 344.1635 0002080 286.9872 252.3320  1.70475495 26612
GSAT0224 (GALILEO 28)   
1 49810U 21116B   26077.20933627 -.00000072  00000+0  00000+0 0  9995
2 49810  57.1900 344.1344 0001987 292.6130 264.7249  1.70475556 26650
GSAT0225 (GALILEO 29)   
1 59598U 24079A   26077.47544898  .00000059  00000+0  00000+0 0  9991
2 59598  55.0585 103.6137 0002809 263.5571  90.1107  1.70474809 11768
GSAT0227 (GALILEO 30)   
1 59600U 24079C   26075.90956439  .00000054  00000+0  00000+0 0  9994
2 59600  55.0532 103.6559 0000413  26.7235 333.3627  1.70474796 11794
GSAT0226 (GALILEO 31)   
1 61183U 24167B   26074.78850979  .00000029  00000+0  00000+0 0  9990
2 61183  55.2150 223.8804 0001606 140.1923 198.7497  1.70474283  9256
GSAT0234 (GALILEO 34)   
1 67162U 25302C   26075.54899155  .00000050  00000+0  00000+0 0  9993
2 67162  54.2721 104.7692 0002753 227.5993 314.4605  1.70474887  1592
